[{"OBJECT_NAME":"ONEWEB-0509","OBJECT_ID":"2022-138Q","EPOCH":"2025-09-03T01:11:22.470432","MEAN_MOTION":13.19726136,"ECCENTRICITY":0.00017051,"INCLINATION":87.9283,"RA_OF_ASC_NODE":2.0304,"ARG_OF_PERICENTER":95.2913,"MEAN_ANOMALY":264.8415,"EPHEMERIS_TYPE":0,"CLASSIFICATION_TYPE":"U","NORAD_CAT_ID":54127,"ELEMENT_SET_NO":999,"REV_AT_EPOCH":13893,"BSTAR":0.00038218832,"MEAN_MOTION_DOT":1.66e-6,"MEAN_MOTION_DDOT":0},{"OBJECT_NAME":"ONEWEB-0510","OBJECT_ID":"2022-138R","EPOCH":"2025-09-02T22:30:00.783648","MEAN_MOTION":13.20771001,"ECCENTRICITY":0.0002324,"INCLINATION":87.929,"RA_OF_ASC_NODE":331.6972,"ARG_OF_PERICENTER":109.2975,"MEAN_ANOMALY":250.841,"EPHEMERIS_TYPE":0,"CLASSIFICATION_TYPE":"U","NORAD_CAT_ID":54128,"ELEMENT_SET_NO":999,"REV_AT_EPOCH":14136,"BSTAR":0.00035318105,"MEAN_MOTION_DOT":1.57e-6,"MEAN_MOTION_DDOT":0},{"OBJECT_NAME":"ONEWEB-0511","OBJECT_ID":"2022-138S","EPOCH":"2025-09-03T06:34:20.523360","MEAN_MOTION":13.19728717,"ECCENTRICITY":0.0002101,"INCLINATION":87.9272,"RA_OF_ASC_NODE":1.9915,"ARG_OF_PERICENTER":94.8079,"MEAN_ANOMALY":265.3294,"EPHEMERIS_TYPE":0,"CLASSIFICATION_TYPE":"U","NORAD_CAT_ID":54129,"ELEMENT_SET_NO":999,"REV_AT_EPOCH":13899,"BSTAR":-0.0011033895,"MEAN_MOTION_DOT":-4.29e-6,"MEAN_MOTION_DDOT":0},{"OBJECT_NAME":"ONEWEB-0512","OBJECT_ID":"2022-138T","EPOCH":"2025-09-03T00:55:26.876928","MEAN_MOTION":13.19725978,"ECCENTRICITY":0.00016812,"INCLINATION":87.9263,"RA_OF_ASC_NODE":2.0783,"ARG_OF_PERICENTER":84.9454,"MEAN_ANOMALY":275.1871,"EPHEMERIS_TYPE":0,"CLASSIFICATION_TYPE":"U","NORAD_CAT_ID":54130,"ELEMENT_SET_NO":999,"REV_AT_EPOCH":13893,"BSTAR":0.00026195614,"MEAN_MOTION_DOT":1.18e-6,"MEAN_MOTION_DDOT":0},{"OBJECT_NAME":"ONEWEB-0513","OBJECT_ID":"2022-138U","EPOCH":"2025-09-03T00:19:08.450400","MEAN_MOTION":13.20314242,"ECCENTRICITY":0.00019936,"INCLINATION":87.9285,"RA_OF_ASC_NODE":2.0435,"ARG_OF_PERICENTER":79.0829,"MEAN_ANOMALY":281.0528,"EPHEMERIS_TYPE":0,"CLASSIFICATION_TYPE":"U","NORAD_CAT_ID":54131,"ELEMENT_SET_NO":999,"REV_AT_EPOCH":13882,"BSTAR":6.0528364e-5,"MEAN_MOTION_DOT":3.7e-7,"MEAN_MOTION_DDOT":0},{"OBJECT_NAME":"ONEWEB-0514","OBJECT_ID":"2022-138V","EPOCH":"2025-09-03T01:18:11.376576","MEAN_MOTION":13.19726225,"ECCENTRICITY":0.00018821,"INCLINATION":87.9283,"RA_OF_ASC_NODE":2.0474,"ARG_OF_PERICENTER":100.4592,"MEAN_ANOMALY":259.6753,"EPHEMERIS_TYPE":0,"CLASSIFICATION_TYPE":"U","NORAD_CAT_ID":54132,"ELEMENT_SET_NO":999,"REV_AT_EPOCH":13895,"BSTAR":0.00029830303,"MEAN_MOTION_DOT":1.32e-6,"MEAN_MOTION_DDOT":0},{"OBJECT_NAME":"ONEWEB-0515","OBJECT_ID":"2022-138W","EPOCH":"2025-09-03T05:28:09.600960","MEAN_MOTION":13.20770802,"ECCENTRICITY":0.00019963,"INCLINATION":87.9298,"RA_OF_ASC_NODE":331.6177,"ARG_OF_PERICENTER":126.0684,"MEAN_ANOMALY":234.0635,"EPHEMERIS_TYPE":0,"CLASSIFICATION_TYPE":"U","NORAD_CAT_ID":54133,"ELEMENT_SET_NO":999,"REV_AT_EPOCH":14142,"BSTAR":-1.5980771e-5,"MEAN_MOTION_DOT":6.0e-8,"MEAN_MOTION_DDOT":0},{"OBJECT_NAME":"ONEWEB-0516","OBJECT_ID":"2022-138X","EPOCH":"2025-09-03T00:41:48.446880","MEAN_MOTION":13.19726849,"ECCENTRICITY":0.00016188,"INCLINATION":87.9264,"RA_OF_ASC_NODE":2.0851,"ARG_OF_PERICENTER":97.9575,"MEAN_ANOMALY":262.1741,"EPHEMERIS_TYPE":0,"CLASSIFICATION_TYPE":"U","NORAD_CAT_ID":54134,"ELEMENT_SET_NO":999,"REV_AT_EPOCH":13895,"BSTAR":0.00018874962,"MEAN_MOTION_DOT":8.8e-7,"MEAN_MOTION_DDOT":0},{"OBJECT_NAME":"ONEWEB-0517","OBJECT_ID":"2022-138Y","EPOCH":"2025-09-03T02:01:24.427200","MEAN_MOTION":13.19725477,"ECCENTRICITY":0.00020544,"INCLINATION":87.9281,"RA_OF_ASC_NODE":2.0367,"ARG_OF_PERICENTER":94.2851,"MEAN_ANOMALY":265.8516,"EPHEMERIS_TYPE":0,"CLASSIFICATION_TYPE":"U","NORAD_CAT_ID":54135,"ELEMENT_SET_NO":999,"REV_AT_EPOCH":13896,"BSTAR":0.00017593737,"MEAN_MOTION_DOT":8.3e-7,"MEAN_MOTION_DDOT":0},{"OBJECT_NAME":"ONEWEB-0518","OBJECT_ID":"2022-138Z","EPOCH":"2025-09-03T06:07:01.403040","MEAN_MOTION":13.19727736,"ECCENTRICITY":0.00016603,"INCLINATION":87.9275,"RA_OF_ASC_NODE":2.039,"ARG_OF_PERICENTER":93.4899,"MEAN_ANOMALY":266.6423,"EPHEMERIS_TYPE":0,"CLASSIFICATION_TYPE":"U","NORAD_CAT_ID":54136,"ELEMENT_SET_NO":999,"REV_AT_EPOCH":13898,"BSTAR":0.00017644365,"MEAN_MOTION_DOT":8.4e-7,"MEAN_MOTION_DDOT":0},{"OBJECT_NAME":"ONEWEB-0519","OBJECT_ID":"2022-138AA","EPOCH":"2025-09-03T01:15:55.274112","MEAN_MOTION":13.19725815,"ECCENTRICITY":0.00020163,"INCLINATION":87.9282,"RA_OF_ASC_NODE":2.0349,"ARG_OF_PERICENTER":94.6212,"MEAN_ANOMALY":265.5151,"EPHEMERIS_TYPE":0,"CLASSIFICATION_TYPE":"U","NORAD_CAT_ID":54137,"ELEMENT_SET_NO":999,"REV_AT_EPOCH":13896,"BSTAR":0.00020240223,"MEAN_MOTION_DOT":9.4e-7,"MEAN_MOTION_DDOT":0},{"OBJECT_NAME":"ONEWEB-0520","OBJECT_ID":"2022-138AB","EPOCH":"2025-09-03T02:05:55.893408","MEAN_MOTION":13.1972437,"ECCENTRICITY":0.00015479,"INCLINATION":87.9282,"RA_OF_ASC_NODE":2.0317,"ARG_OF_PERICENTER":90.2309,"MEAN_ANOMALY":269.9001,"EPHEMERIS_TYPE":0,"CLASSIFICATION_TYPE":"U","NORAD_CAT_ID":54138,"ELEMENT_SET_NO":999,"REV_AT_EPOCH":13895,"BSTAR":-0.00013166887,"MEAN_MOTION_DOT":-4.0e-7,"MEAN_MOTION_DDOT":0},{"OBJECT_NAME":"ONEWEB-0521","OBJECT_ID":"2022-138AC","EPOCH":"2025-09-03T06:32:04.553952","MEAN_MOTION":13.19725902,"ECCENTRICITY":0.00020637,"INCLINATION":87.9277,"RA_OF_ASC_NODE":1.9815,"ARG_OF_PERICENTER":98.3639,"MEAN_ANOMALY":261.7728,"EPHEMERIS_TYPE":0,"CLASSIFICATION_TYPE":"U","NORAD_CAT_ID":54139,"ELEMENT_SET_NO":999,"REV_AT_EPOCH":13892,"BSTAR":6.2875109e-5,"MEAN_MOTION_DOT":3.8e-7,"MEAN_MOTION_DDOT":0},{"OBJECT_NAME":"ONEWEB-0522","OBJECT_ID":"2022-138AD","EPOCH":"2025-09-03T00:34:58.523808","MEAN_MOTION":13.1972574,"ECCENTRICITY":0.00016898,"INCLINATION":87.9278,"RA_OF_ASC_NODE":2.0318,"ARG_OF_PERICENTER":97.7595,"MEAN_ANOMALY":262.3729,"EPHEMERIS_TYPE":0,"CLASSIFICATION_TYPE":"U","NORAD_CAT_ID":54140,"ELEMENT_SET_NO":999,"REV_AT_EPOCH":13893,"BSTAR":1.3873021e-5,"MEAN_MOTION_DOT":1.8e-7,"MEAN_MOTION_DDOT":0},{"OBJECT_NAME":"ONEWEB-0523","OBJECT_ID":"2022-138AE","EPOCH":"2025-09-03T05:10:00.304320","MEAN_MOTION":13.2077023,"ECCENTRICITY":0.00024931,"INCLINATION":87.9294,"RA_OF_ASC_NODE":331.6468,"ARG_OF_PERICENTER":115.4447,"MEAN_ANOMALY":244.6944,"EPHEMERIS_TYPE":0,"CLASSIFICATION_TYPE":"U","NORAD_CAT_ID":54141,"ELEMENT_SET_NO":999,"REV_AT_EPOCH":14142,"BSTAR":-7.7752364e-5,"MEAN_MOTION_DOT":-1.9e-7,"MEAN_MOTION_DDOT":0},{"OBJECT_NAME":"ONEWEB-0524","OBJECT_ID":"2022-138AF","EPOCH":"2025-09-02T23:26:48.677856","MEAN_MOTION":13.20773264,"ECCENTRICITY":0.00016794,"INCLINATION":87.9292,"RA_OF_ASC_NODE":331.6948,"ARG_OF_PERICENTER":129.2469,"MEAN_ANOMALY":230.8814,"EPHEMERIS_TYPE":0,"CLASSIFICATION_TYPE":"U","NORAD_CAT_ID":54142,"ELEMENT_SET_NO":999,"REV_AT_EPOCH":14139,"BSTAR":0.00011055855,"MEAN_MOTION_DOT":5.8e-7,"MEAN_MOTION_DDOT":0},{"OBJECT_NAME":"ONEWEB-0525","OBJECT_ID":"2022-138AG","EPOCH":"2025-09-03T01:02:15.693216","MEAN_MOTION":13.1972687,"ECCENTRICITY":0.00015951,"INCLINATION":87.9283,"RA_OF_ASC_NODE":2.0492,"ARG_OF_PERICENTER":91.7506,"MEAN_ANOMALY":268.381,"EPHEMERIS_TYPE":0,"CLASSIFICATION_TYPE":"U","NORAD_CAT_ID":54143,"ELEMENT_SET_NO":999,"REV_AT_EPOCH":13895,"BSTAR":0.00019385765,"MEAN_MOTION_DOT":9.1e-7,"MEAN_MOTION_DDOT":0},{"OBJECT_NAME":"ONEWEB-0526","OBJECT_ID":"2022-138AH","EPOCH":"2025-09-03T01:50:00.111552","MEAN_MOTION":13.19726861,"ECCENTRICITY":0.00016907,"INCLINATION":87.9281,"RA_OF_ASC_NODE":2.0297,"ARG_OF_PERICENTER":97.6901,"MEAN_ANOMALY":262.4424,"EPHEMERIS_TYPE":0,"CLASSIFICATION_TYPE":"U","NORAD_CAT_ID":54144,"ELEMENT_SET_NO":999,"REV_AT_EPOCH":13893,"BSTAR":-0.00030288312,"MEAN_MOTION_DOT":-1.08e-6,"MEAN_MOTION_DDOT":0},{"OBJECT_NAME":"ONEWEB-0529","OBJECT_ID":"2022-138AJ","EPOCH":"2025-09-03T01:54:34.391808","MEAN_MOTION":13.19726814,"ECCENTRICITY":0.00015933,"INCLINATION":87.9273,"RA_OF_ASC_NODE":2.0694,"ARG_OF_PERICENTER":93.1566,"MEAN_ANOMALY":266.9749,"EPHEMERIS_TYPE":0,"CLASSIFICATION_TYPE":"U","NORAD_CAT_ID":54145,"ELEMENT_SET_NO":999,"REV_AT_EPOCH":13895,"BSTAR":-0.00013449901,"MEAN_MOTION_DOT":-4.1e-7,"MEAN_MOTION_DDOT":0},{"OBJECT_NAME":"ONEWEB-0531","OBJECT_ID":"2022-138AK","EPOCH":"2025-09-03T04:33:36.372384","MEAN_MOTION":13.20771161,"ECCENTRICITY":0.00023198,"INCLINATION":87.9285,"RA_OF_ASC_NODE":331.6445,"ARG_OF_PERICENTER":121.1885,"MEAN_ANOMALY":238.9476,"EPHEMERIS_TYPE":0,"CLASSIFICATION_TYPE":"U","NORAD_CAT_ID":54146,"ELEMENT_SET_NO":999,"REV_AT_EPOCH":14142,"BSTAR":-0.00049176317,"MEAN_MOTION_DOT":-1.87e-6,"MEAN_MOTION_DDOT":0},{"OBJECT_NAME":"ONEWEB-0535","OBJECT_ID":"2022-138AL","EPOCH":"2025-09-03T00:53:09.035232","MEAN_MOTION":13.19724211,"ECCENTRICITY":0.00021331,"INCLINATION":87.9281,"RA_OF_ASC_NODE":2.0331,"ARG_OF_PERICENTER":106.0804,"MEAN_ANOMALY":254.0563,"EPHEMERIS_TYPE":0,"CLASSIFICATION_TYPE":"U","NORAD_CAT_ID":54147,"ELEMENT_SET_NO":999,"REV_AT_EPOCH":13896,"BSTAR":0.00015428875,"MEAN_MOTION_DOT":7.5e-7,"MEAN_MOTION_DDOT":0},{"OBJECT_NAME":"ONEWEB-0536","OBJECT_ID":"2022-138AM","EPOCH":"2025-09-03T06:04:30.895104","MEAN_MOTION":13.20770965,"ECCENTRICITY":0.00022713,"INCLINATION":87.9286,"RA_OF_ASC_NODE":331.679,"ARG_OF_PERICENTER":127.2214,"MEAN_ANOMALY":232.9127,"EPHEMERIS_TYPE":0,"CLASSIFICATION_TYPE":"U","NORAD_CAT_ID":54148,"ELEMENT_SET_NO":999,"REV_AT_EPOCH":14142,"BSTAR":-0.00044252149,"MEAN_MOTION_DOT":-1.67e-6,"MEAN_MOTION_DDOT":0},{"OBJECT_NAME":"ONEWEB-0527","OBJECT_ID":"2022-166A","EPOCH":"2025-09-03T01:19:02.584992","MEAN_MOTION":13.21822609,"ECCENTRICITY":0.00018348,"INCLINATION":87.9228,"RA_OF_ASC_NODE":301.3002,"ARG_OF_PERICENTER":96.2927,"MEAN_ANOMALY":263.8416,"EPHEMERIS_TYPE":0,"CLASSIFICATION_TYPE":"U","NORAD_CAT_ID":54642,"ELEMENT_SET_NO":999,"REV_AT_EPOCH":13360,"BSTAR":-8.3149097e-5,"MEAN_MOTION_DOT":-2.1e-7,"MEAN_MOTION_DDOT":0}]
